{"fetched_at":"2026-03-29T16:36:15Z","count":15609,"tles":[{"name":"STARLINK-30414","line1":"1 57859U 23141V   26087.71220651  .00000186  00000+0  18412-4 0  9996","line2":"2 57859  53.1606 195.5336 0001437  63.9175 296.1974 15.30193486143247","category":"Starlink"}]}