{
  "norad_id": 57859,
  "name": "STARLINK-30414",
  "history": [
    {
      "epoch": "2026-03-28T17:05:34.642464Z",
      "apogee_km": 476.2198283414682,
      "perigee_km": 474.24920989486145,
      "latitude_deg": 3.3644009614156176e-05,
      "longitude_deg": 113.01056284371492,
      "height_km": 475.6994243051317,
      "semi_major_axis_km": 6853.3715191181645,
      "eccentricity": 0.00014377,
      "inclination_deg": 53.1606,
      "raan_deg": 195.5336,
      "arg_perigee_deg": 63.9175,
      "mean_anomaly_deg": 296.1974,
      "mean_motion_rev_day": 15.30193486
    }
  ]
}